MEAN_MOTION;ECCENTRICITY;INCLINATION;RA_OF_ASC_NODE;ARG_OF_PERICENTER;MEAN_ANOMALY;BSTAR;MEAN_MOTION_DOT;MEAN_MOTION_DDOT;TYPE
14.38863283;0.0008156;45.0175;87.3362;247.6703;112.3281;6.9408E-5;7.3E-7;0;Orbcomm
14.38863662;0.0008164;45.0175;84.0405;250.879;109.1175;7.486E-5;9.0E-7;0;Orbcomm
14.38863958;0.0008182;45.0175;81.0743;253.6806;106.3143;7.5604E-5;9.2E-7;0;Orbcomm
14.38864149;0.000818;45.0176;79.4265;255.3074;104.6869;7.7492E-5;9.8E-7;0;Orbcomm
14.38864461;0.0008191;45.0177;76.1308;258.4669;101.5261;7.5565E-5;9.2E-7;0;Orbcomm
14.38864598;0.0008187;45.0177;74.8126;259.7627;100.2299;7.5341E-5;9.1E-7;0;Orbcomm
14.38864825;0.0008195;45.0178;72.5055;262.0028;97.9891;7.449E-5;8.9E-7;0;Orbcomm
14.38864969;0.0008189;45.0179;70.5282;263.8979;96.0937;7.1339E-5;7.9E-7;0;Orbcomm
14.38865429;0.0008184;45.018;65.5847;268.6709;91.3202;7.0604E-5;7.7E-7;0;Orbcomm
14.38866116;0.0008164;45.0182;58.3343;275.718;84.2738;7.3748E-5;8.6E-7;0;Orbcomm
14.38866152;0.000816;45.0182;58.0047;276.0402;83.9517;7.3526E-5;8.6E-7;0;Orbcomm
14.3886637;0.0008147;45.0183;56.357;277.6314;82.3609;7.6879E-5;9.6E-7;0;Orbcomm
14.38866759;0.0008134;45.0184;52.7317;281.0739;78.9195;7.6917E-5;9.6E-7;0;Orbcomm
14.3886711;0.0008105;45.0184;48.7769;284.8946;75.1005;7.2403E-5;8.2E-7;0;Orbcomm
14.38867208;0.0008096;45.0185;47.7883;285.843;74.1526;7.2154E-5;8.1E-7;0;Orbcomm
14.38867541;0.000807;45.0186;44.4926;289.0734;70.924;7.1973E-5;8.1E-7;0;Orbcomm
14.38867718;0.0008049;45.0186;42.8448;290.6829;69.3156;7.2553E-5;8.3E-7;0;Orbcomm
14.38868112;0.0008024;45.0187;39.5492;293.8644;66.1364;7.7205E-5;9.7E-7;0;Orbcomm
14.38868349;0.0007998;45.0188;37.2424;296.1203;63.8823;7.8428E-5;1.01E-6;0;Orbcomm
14.38868596;0.0007973;45.0189;34.6058;298.652;61.3527;7.963E-5;1.05E-6;0;Orbcomm
14.38868858;0.0007943;45.0189;32.6286;300.6285;59.378;8.4703E-5;1.2E-6;0;Orbcomm
14.38869171;0.0007923;45.019;30.3217;302.8528;57.1558;8.9122E-5;1.34E-6;0;Orbcomm
14.38869211;0.0007916;45.019;29.9921;303.1784;56.8306;8.8972E-5;1.34E-6;0;Orbcomm
14.38869462;0.000789;45.019;28.3444;304.8445;55.1662;9.3141E-5;1.47E-6;0;Orbcomm
14.38870064;0.0007852;45.0191;25.3784;307.7261;52.2876;0.00010392;1.8E-6;0;Orbcomm
14.38870263;0.0007826;45.0191;24.0603;309.0549;50.9603;0.00010496;1.83E-6;0;Orbcomm
14.38870294;0.000782;45.0191;23.7307;309.3926;50.623;0.00010414;1.81E-6;0;Orbcomm
14.38870838;0.0007769;45.0192;20.4351;312.6006;47.4187;0.00010691;1.89E-6;0;Orbcomm
14.38871338;0.0007692;45.0192;15.8215;317.4207;42.6045;0.00010128;1.72E-6;0;Orbcomm
14.38871448;0.0007675;45.0192;14.1738;318.9434;41.0837;9.7116E-5;1.59E-6;0;Orbcomm
14.38871826;0.0007617;45.0192;10.8783;322.2293;37.8021;9.5747E-5;1.55E-6;0;Orbcomm
14.38872309;0.0007548;45.0191;6.2645;326.8111;33.2264;9.2745E-5;1.45E-6;0;Orbcomm
14.38872457;0.0007529;45.0191;5.276;327.8325;32.2064;9.5051E-5;1.53E-6;0;Orbcomm
14.38872457;0.0007529;45.0191;5.276;327.8325;32.2064;9.5051E-5;1.53E-6;0;Orbcomm
14.38872821;0.0007478;45.0191;1.9803;331.141;28.9024;9.3314E-5;1.47E-6;0;Orbcomm
14.38872969;0.0007455;45.0191;0.6622;332.5249;27.5205;9.2643E-5;1.45E-6;0;Orbcomm
14.38873809;0.0007366;45.019;355.7188;337.622;22.4306;0.00010021;1.69E-6;0;Orbcomm
14.38874546;0.0007288;45.019;351.4346;342.005;18.054;0.00010616;1.87E-6;0;Orbcomm
14.38875485;0.000716;45.019;346.1617;347.7582;12.3092;0.00011437;2.13E-6;0;Orbcomm
14.38876024;0.0007094;45.0189;342.5365;351.442;8.6306;0.00011617;2.18E-6;0;Orbcomm
14.38876701;0.000701;45.0188;338.2522;355.9893;4.0899;0.00011872;2.26E-6;0;Orbcomm
14.38876766;0.0007003;45.0189;337.9227;356.3245;3.7552;0.00011957;2.29E-6;0;Orbcomm
14.3887693;0.0006981;45.0188;336.9341;357.47;2.6113;0.0001202;2.31E-6;0;Orbcomm
14.38877708;0.0006871;45.0187;331.6611;3.221;356.8682;0.00011673;2.2E-6;0;Orbcomm
14.38877959;0.0006825;45.0186;329.6837;5.3478;354.7442;0.00011436;2.12E-6;0;Orbcomm
14.38878281;0.0006785;45.0185;327.7063;7.5911;352.5039;0.00011404;2.12E-6;0;Orbcomm
14.3887896;0.0006693;45.0184;323.0925;12.7407;347.3609;0.0001129;2.08E-6;0;Orbcomm
14.38879266;0.0006623;45.0183;319.7966;16.3329;343.7732;0.00010843;1.94E-6;0;Orbcomm
14.38879496;0.0006596;45.0182;318.1488;18.2083;341.9;0.00010963;1.98E-6;0;Orbcomm
14.38879938;0.00065;45.0181;313.8645;23.1557;336.9584;0.00010655;1.88E-6;0;Orbcomm
14.38880198;0.0006459;45.018;311.887;25.3748;334.7417;0.00010638;1.88E-6;0;Orbcomm
14.38880351;0.0006418;45.0179;309.58;28.0647;332.0547;9.9998E-5;1.68E-6;0;Orbcomm
14.38880743;0.0006341;45.0178;306.2841;31.9848;328.1385;9.7346E-5;1.6E-6;0;Orbcomm
14.38880869;0.0006329;45.0178;304.9658;33.588;326.5369;9.4292E-5;1.5E-6;0;Orbcomm
14.38881416;0.000625;45.0177;300.0222;39.4242;320.7061;8.8321E-5;1.32E-6;0;Orbcomm
14.38881869;0.0006201;45.0176;296.3969;43.78;316.354;8.6471E-5;1.26E-6;0;Orbcomm
14.38882589;0.0006086;45.0176;290.4647;51.1148;309.0243;8.7623E-5;1.29E-6;0;Orbcomm
14.38882928;0.0006045;45.0176;287.1688;55.0158;305.1258;8.6284E-5;1.25E-6;0;Orbcomm
14.38883384;0.0005992;45.0175;282.8844;60.2621;299.8823;8.5275E-5;1.22E-6;0;Orbcomm
14.3888365;0.0005973;45.0174;280.907;62.7387;297.407;8.5792E-5;1.24E-6;0;Orbcomm
14.38883975;0.0005931;45.0174;277.9408;66.4636;293.6835;8.3307E-5;1.16E-6;0;Orbcomm
14.38884157;0.0005926;45.0174;276.293;68.4543;291.6937;8.2485E-5;1.13E-6;0;Orbcomm
14.38884633;0.000589;45.0173;271.6789;74.2401;285.9097;8.0072E-5;1.06E-6;0;Orbcomm
14.38885075;0.0005863;45.0173;267.3944;79.5235;280.6274;8.1047E-5;1.09E-6;0;Orbcomm
14.38885398;0.0005833;45.0173;263.769;84.1374;276.014;8.0688E-5;1.08E-6;0;Orbcomm
14.38885559;0.0005832;45.0173;262.4508;85.782;274.3695;8.3025E-5;1.15E-6;0;Orbcomm
14.38885897;0.0005812;45.0173;259.4845;89.5487;270.6028;8.6359E-5;1.25E-6;0;Orbcomm
14.38886293;0.0005803;45.0174;254.8705;95.3084;264.8427;8.29E-5;1.15E-6;0;Orbcomm
14.38886322;0.0005803;45.0174;254.5409;95.7621;264.389;8.2042E-5;1.12E-6;0;Orbcomm
14.38886829;0.0005799;45.0174;249.5973;102.1035;258.0464;7.7532E-5;9.8E-7;0;Orbcomm
14.38887031;0.0005802;45.0174;247.9496;104.1476;256.0018;7.739E-5;9.8E-7;0;Orbcomm
14.3888748;0.0005808;45.0175;243.3357;109.9986;250.1489;7.3891E-5;8.7E-7;0;Orbcomm
14.3888791;0.0005827;45.0175;238.7218;115.769;244.376;7.3033E-5;8.4E-7;0;Orbcomm
14.38888206;0.000584;45.0174;235.426;119.9484;240.1945;7.2343E-5;8.2E-7;0;Orbcomm
14.38888341;0.000585;45.0174;234.1079;121.5291;238.613;7.3226E-5;8.5E-7;0;Orbcomm
14.38888623;0.0005877;45.0174;230.8122;125.6302;234.5095;7.1856E-5;8.0E-7;0;Orbcomm
14.38888914;0.0005899;45.0173;227.5166;129.6206;230.5164;7.041E-5;7.6E-7;0;Orbcomm
14.38889046;0.0005921;45.0173;225.8687;131.6577;228.4779;6.9024E-5;7.2E-7;0;Orbcomm
14.38889411;0.0005948;45.0172;222.573;135.6184;224.5142;7.1165E-5;7.8E-7;0;Orbcomm
14.38889494;0.0005965;45.0172;221.5842;136.8213;223.3104;6.9764E-5;7.4E-7;0;Orbcomm
14.3888986;0.0006002;45.0171;217.6294;141.5672;218.5605;7.0428E-5;7.6E-7;0;Orbcomm
14.38889971;0.000602;45.0171;216.6407;142.7447;217.3821;7.0742E-5;7.7E-7;0;Orbcomm
14.38890588;0.0006073;45.0171;211.6972;148.6504;211.4708;8.0277E-5;1.07E-6;0;Orbcomm
14.38890635;0.0006077;45.0171;211.3677;149.0105;211.1103;8.1288E-5;1.1E-6;0;Orbcomm
14.38890727;0.0006087;45.017;210.7085;149.7529;210.3673;8.2895E-5;1.15E-6;0;Orbcomm
14.3889115;0.0006139;45.017;206.7536;154.4933;205.622;8.5546E-5;1.23E-6;0;Orbcomm
14.38891218;0.0006143;45.017;206.0946;155.2391;204.8753;8.5586E-5;1.23E-6;0;Orbcomm
14.38891691;0.0006205;45.0169;201.4806;160.5766;199.532;8.4061E-5;1.18E-6;0;Orbcomm
14.38892113;0.0006271;45.0169;197.1962;165.5119;194.5911;7.916E-5;1.03E-6;0;Orbcomm
14.38892428;0.0006319;45.0169;193.9004;169.2821;190.8163;7.4624E-5;8.9E-7;0;Orbcomm
14.38892692;0.0006386;45.0168;188.9569;174.7733;185.3184;6.2576E-5;5.2E-7;0;Orbcomm
14.38892771;0.0006401;45.0168;187.9683;175.84;184.2503;6.2701E-5;5.2E-7;0;Orbcomm
14.38893092;0.0006475;45.0166;183.0248;181.2751;178.8082;5.957E-5;4.2E-7;0;Orbcomm
14.38893116;0.000648;45.0166;182.6952;181.6318;178.4511;5.931E-5;4.2E-7;0;Orbcomm
14.38893446;0.0006553;45.0164;178.0812;186.6065;173.4698;5.8315E-5;3.8E-7;0;Orbcomm
14.38893446;0.0006553;45.0164;178.0812;186.6065;173.4698;5.8315E-5;3.8E-7;0;Orbcomm
14.38894071;0.000662;45.0163;173.4671;191.5283;168.5415;6.8237E-5;6.9E-7;0;Orbcomm
14.38894231;0.0006664;45.0162;170.5008;194.6959;165.3697;6.1819E-5;4.9E-7;0;Orbcomm
14.38894604;0.0006693;45.0162;168.5234;196.7177;163.3452;6.8869E-5;7.1E-7;0;Orbcomm
14.38895021;0.0006742;45.0162;165.2275;200.1689;159.8895;7.3847E-5;8.7E-7;0;Orbcomm
14.38895166;0.000675;45.0162;164.2389;201.1737;158.8833;7.6855E-5;9.6E-7;0;Orbcomm
14.38895839;0.0006814;45.0162;159.6247;205.8938;154.157;8.681E-5;1.27E-6;0;Orbcomm
14.38895895;0.000682;45.0162;159.2951;206.1989;153.8515;8.7644E-5;1.3E-6;0;Orbcomm
14.38896427;0.0006886;45.0162;154.6809;210.8731;149.1714;8.9489E-5;1.35E-6;0;Orbcomm
14.38897013;0.000695;45.0163;149.7372;215.7988;144.2396;8.7721E-5;1.3E-6;0;Orbcomm
14.38897578;0.0007;45.0163;145.1231;220.3621;139.6709;8.3348E-5;1.16E-6;0;Orbcomm
14.388979;0.0007039;45.0164;142.1568;223.2586;136.771;7.8788E-5;1.02E-6;0;Orbcomm
14.38898136;0.0007048;45.0164;140.5091;224.871;135.157;7.9273E-5;1.04E-6;0;Orbcomm
14.38898557;0.0007085;45.0165;137.2132;228.0724;131.9521;7.934E-5;1.04E-6;0;Orbcomm
14.3889875;0.0007087;45.0165;135.8949;229.3689;130.6543;8.1325E-5;1.1E-6;0;Orbcomm
14.38899246;0.0007119;45.0165;131.2808;233.8296;126.1895;8.0471E-5;1.07E-6;0;Orbcomm
14.38899296;0.0007123;45.0165;130.9512;234.1493;125.8694;8.0789E-5;1.08E-6;0;Orbcomm
14.38899796;0.0007146;45.0166;126.6667;238.2446;121.7707;8.3599E-5;1.17E-6;0;Orbcomm
14.38900069;0.0007164;45.0166;124.03;240.7807;119.2325;8.282E-5;1.15E-6;0;Orbcomm
14.38900157;0.0007166;45.0166;123.0412;241.6612;118.3514;8.1393E-5;1.1E-6;0;Orbcomm
14.38900247;0.0007168;45.0167;122.0525;242.6027;117.4093;8.0546E-5;1.08E-6;0;Orbcomm
14.38900726;0.0007183;45.0168;117.1088;247.2587;112.7503;7.6293E-5;9.4E-7;0;Orbcomm
14.38901331;0.0007189;45.0171;109.858;254.0533;105.9524;7.1447E-5;7.9E-7;0;Orbcomm
14.38901465;0.00072;45.0172;108.8693;254.9421;105.0631;7.2725E-5;8.3E-7;0;Orbcomm
